GPS BIIF-7  (PRN 09)    
1 40105U 14045A   26117.19658757  .00000024  00000+0  00000+0 0  9993
2 40105  55.3206  90.4949 0031672 119.1316 241.1707  2.00554999 85052
GPS BIIF-8  (PRN 03)    
1 40294U 14068A   26117.07053014 -.00000103  00000+0  00000+0 0  9998
2 40294  56.9545  32.9243 0065294  68.8787 291.8193  2.00573025 84186
GPS BIIF-9  (PRN 26)    
1 40534U 15013A   26116.70644662 -.00000036  00000+0  00000+0 0  9995
2 40534  53.1742 206.3067 0108883  39.9769 320.8462  2.00554396 80798
GPS BIIF-10 (PRN 08)    
1 40730U 15033A   26115.37018511 -.00000039  00000+0  00000+0 0  9998
2 40730  54.0255 269.2625 0115006  29.8840 330.7367  2.00558940 78932
GPS BIIF-11 (PRN 10)    
1 41019U 15062A   26116.92377529 -.00000103  00000+0  00000+0 0  9992
2 41019  56.9271  32.7864 0111256 231.5148 127.4874  2.00567014 76806
GPS BIIF-12 (PRN 32)    
1 41328U 16007A   26117.01161554  .00000028  00000+0  00000+0 0  9990
2 41328  55.4930  91.4870 0096122 247.0983 111.8712  2.00554124 74812
GPS BIII-1  (PRN 04)    
1 43873U 18109A   26116.40139615  .00000039  00000+0  00000+0 0  9999
2 43873  55.6514  94.2279 0037898 198.8751 333.4999  2.00559161 54031
GPS BIII-2  (PRN 18)    
1 44506U 19056A   26117.03436080 -.00000081  00000+0  00000+0 0  9999
2 44506  55.6599 333.1752 0059578 197.4088 334.1665  2.00569164 49043
GPS BIII-3  (PRN 23)    
1 45854U 20041A   26117.09853678 -.00000106  00000+0  00000+0 0  9992
2 45854  56.6387  30.9255 0062218 205.0319 313.2798  2.00559759 43019
GPS BIII-4  (PRN 14)    
1 46826U 20078A   26112.92753654 -.00000017  00000+0  00000+0 0  9993
2 46826  53.9891 213.0193 0070939 205.6597 155.6852  2.00564823 40404
GPS BIII-5  (PRN 11)    
1 48859U 21054A   26116.36989758 -.00000083  00000+0  00000+0 0  9997
2 48859  55.1971 334.5423 0024042 229.9230 282.5639  2.00572310 35718
GPS BIII-6  (PRN 28)    
1 55268U 23009A   26116.15940615  .00000060  00000+0  00000+0 0  9991
2 55268  55.1147 150.5635 0005615 315.2799  82.8080  2.00574943 24207
GPS BIII-7  (PRN 01)    
1 62339U 24242A   26116.23725212 -.00000085  00000+0  00000+0 0  9999
2 62339  54.8705 336.2872 0016832   0.5482 176.6523  2.00570556 10218
GPS BIII-8  (PRN 21)    
1 64202U 25116A   26113.24280751 -.00000081  00000+0  00000+0 0  9999
2 64202  55.1985  33.3417 0009124 335.2523  22.0569  2.00549673  6768
GPS BIII-9  (PRN 20)    
1 67588U 26017A   26110.36440864  .00000023  00000+0  00000+0 0  9998
2 67588  55.0497  91.0746 0024611 254.1378 105.5744  2.00572232430452
GPS BIII-10             
1 68791U 26087A   26112.34150053  .00002417  00000+0  19778-2 0  9994
2 68791  54.9968 210.8716 5942075 270.2176  26.1146  4.03281331    56
